NORAD_CAT_ID,OBJECT_NAME,OBJECT_TYPE,EPOCH,MEAN_MOTION,ECCENTRICITY,INCLINATION,RA_OF_ASC_NODE,ARG_OF_PERICENTER,MEAN_ANOMALY,BSTAR,MEAN_MOTION_DOT,MEAN_MOTION_DDOT,TLE_LINE0,TLE_LINE1,TLE_LINE2,SEMIMAJOR_AXIS,PERIOD,APOGEE,PERIGEE,DECAYED
51132.0,STARLINK-3393,PAYLOAD,2023-08-02 14:16:22,15.08840214,0.0001198,53.2163,244.2647,86.8472,273.2657,4.0089e-05,3.5e-06,0.0,0 STARLINK-3393,1 51132U 22005AE  23214.59469961  .00000350  00000-0  40089-4 0  9995,2 51132  53.2163 244.2647 0001198  86.8472 273.2657 15.08840214 86411,6917.88,95.438,540.573,538.916,0.0
51132.0,STARLINK-3393,PAYLOAD,2023-08-04 09:11:48,15.08824081,0.0001065,53.2159,236.2345,98.5604,261.5508,-2.7547e-05,-7.26e-06,0.0,0 STARLINK-3393,1 51132U 22005AE  23216.38319844 -.00000726  00000-0 -27547-4 0  9991,2 51132  53.2159 236.2345 0001065  98.5604 261.5508 15.08824081 86680,6917.929,95.439,540.531,539.057,0.0
51132.0,STARLINK-3393,PAYLOAD,2023-08-05 10:37:57,15.08843885,0.0001122,53.2163,231.4768,104.8276,255.2841,2.2949e-05,7.7e-07,0.0,0 STARLINK-3393,1 51132U 22005AE  23217.44303094  .00000077  00000-0  22949-4 0  9997,2 51132  53.2163 231.4768 0001122 104.8276 255.2841 15.08843885 86842,6917.869,95.437,540.51,538.957,0.0
51132.0,STARLINK-3393,PAYLOAD,2023-08-07 10:19:31,15.08857075,0.000113,53.2153,222.5555,82.6116,277.5004,0.00023722,3.491e-05,0.0,0 STARLINK-3393,1 51132U 22005AE  23219.43022436  .00003491  00000-0  23722-3 0  9998,2 51132  53.2153 222.5555 0001130  82.6116 277.5004 15.08857075 87149,6917.828,95.436,540.475,538.911,0.0
51132.0,STARLINK-3393,PAYLOAD,2023-08-08 00:37:59,15.08846045,0.0001234,53.2166,219.8789,86.0217,274.0916,-2.4237e-05,-6.74e-06,0.0,0 STARLINK-3393,1 51132U 22005AE  23220.02638429 -.00000674  00000-0 -24237-4 0  9995,2 51132  53.2166 219.8789 0001234  86.0217 274.0916 15.08846045 87235,6917.862,95.437,540.581,538.873,0.0
51132.0,STARLINK-3393,PAYLOAD,2023-08-09 10:01:05,15.08845271,0.0001134,53.2157,213.6359,89.5045,270.6077,7.158e-06,-1.74e-06,0.0,0 STARLINK-3393,1 51132U 22005AE  23221.41742088 -.00000174  00000-0  71580-5 0  9994,2 51132  53.2157 213.6359 0001134  89.5045 270.6077 15.08845271 87449,6917.864,95.437,540.514,538.945,0.0
51132.0,STARLINK-3393,PAYLOAD,2023-08-09 16:22:37,15.08838334,0.000109,53.2152,212.4453,87.6614,272.4503,-7.7531e-05,-1.521e-05,0.0,0 STARLINK-3393,1 51132U 22005AE  23221.68238400 -.00001521  00000-0 -77531-4 0  9990,2 51132  53.2152 212.4453 0001090  87.6614 272.4503 15.08838334 87488,6917.885,95.438,540.505,538.996,0.0
51132.0,STARLINK-3393,PAYLOAD,2023-08-11 08:07:16,15.08841234,0.0001051,53.2166,205.0109,93.4241,266.6872,7.3322e-05,8.79e-06,0.0,0 STARLINK-3393,1 51132U 22005AE  23223.33838608  .00000879  00000-0  73322-4 0  9997,2 51132  53.2166 205.0109 0001051  93.4241 266.6872 15.08841234 87732,6917.877,95.437,540.469,539.015,0.0
51132.0,STARLINK-3393,PAYLOAD,2023-08-11 22:25:45,15.08833001,0.0001109,53.2157,202.3344,90.4471,269.6649,4.5701e-05,4.39e-06,0.0,0 STARLINK-3393,1 51132U 22005AE  23223.93455415  .00000439  00000-0  45701-4 0  9996,2 51132  53.2157 202.3344 0001109  90.4471 269.6649 15.08833001 87827,6917.902,95.438,540.534,539.0,0.0
51132.0,STARLINK-3393,PAYLOAD,2023-08-13 01:27:18,15.08844461,0.0001162,53.215,197.2797,88.4604,271.6521,9.6723e-05,1.252e-05,0.0,0 STARLINK-3393,1 51132U 22005AE  23225.06062641  .00001252  00000-0  96723-4 0  9991,2 51132  53.2150 197.2797 0001162  88.4604 271.6521 15.08844461 87990,6917.867,95.437,540.536,538.928,0.0
51132.0,STARLINK-3393,PAYLOAD,2023-08-13 07:48:50,15.08855463,0.0001037,53.2162,196.0913,81.1212,278.9897,6.8377e-05,8.01e-06,0.0,0 STARLINK-3393,1 51132U 22005AE  23225.32558028  .00000801  00000-0  68377-4 0  9992,2 51132  53.2162 196.0913 0001037  81.1212 278.9897 15.08855463 88032,6917.833,95.437,540.416,538.981,0.0
51132.0,STARLINK-3393,PAYLOAD,2023-08-13 15:45:46,15.08847532,0.0001167,53.215,194.6049,77.8117,282.3005,1.5761e-06,-2.63e-06,0.0,0 STARLINK-3393,1 51132U 22005AE  23225.65678568 -.00000263  00000-0  15761-5 0  9993,2 51132  53.2150 194.6049 0001167  77.8117 282.3005 15.08847532 88086,6917.857,95.437,540.53,538.915,0.0
51132.0,STARLINK-3393,PAYLOAD,2023-08-14 01:18:05,15.0883347,0.0001199,53.2161,192.8205,86.9902,273.1228,3.6447e-05,2.92e-06,0.0,0 STARLINK-3393,1 51132U 22005AE  23226.05423558  .00000292  00000-0  36447-4 0  9999,2 51132  53.2161 192.8205 0001199  86.9902 273.1228 15.08833470 88148,6917.9,95.438,540.595,538.936,0.0
51132.0,STARLINK-3393,PAYLOAD,2023-08-14 07:39:38,15.08841135,0.0001361,53.2168,191.6307,95.104,265.0108,7.1419e-05,8.49e-06,0.0,0 STARLINK-3393,1 51132U 22005AE  23226.31918986  .00000849  00000-0  71419-4 0  9998,2 51132  53.2168 191.6307 0001361  95.1040 265.0108 15.08841135 88189,6917.877,95.437,540.683,538.8,0.0
51132.0,STARLINK-3393,PAYLOAD,2023-08-16 02:35:02,15.0884088,0.0001418,53.2177,183.6021,92.8037,267.3118,0.00011628,1.563e-05,0.0,0 STARLINK-3393,1 51132U 22005AE  23228.10767068  .00001563  00000-0  11628-3 0  9999,2 51132  53.2177 183.6021 0001418  92.8037 267.3118 15.08840880 88458,6917.878,95.437,540.724,538.762,0.0
51132.0,STARLINK-3393,PAYLOAD,2023-08-17 02:25:50,15.08837115,0.0001317,53.2172,179.1414,91.4773,268.637,2.5708e-05,1.21e-06,0.0,0 STARLINK-3393,1 51132U 22005AE  23229.10127671  .00000121  00000-0  25708-4 0  9994,2 51132  53.2172 179.1414 0001317  91.4773 268.6370 15.08837115 88607,6917.889,95.438,540.665,538.843,0.0
51132.0,STARLINK-3393,PAYLOAD,2023-08-18 03:52:00,15.08840712,0.0001535,53.2186,174.3831,86.2809,273.8359,2.8584e-05,1.67e-06,0.0,0 STARLINK-3393,1 51132U 22005AE  23230.16111619  .00000167  00000-0  28584-4 0  9992,2 51132  53.2186 174.3831 0001535  86.2809 273.8359 15.08840712 88765,6917.878,95.438,540.805,538.681,0.0
51132.0,STARLINK-3393,PAYLOAD,2023-08-19 13:15:06,15.08838286,0.0001472,53.2184,168.1391,83.6826,276.4334,5.4091e-05,5.73e-06,0.0,0 STARLINK-3393,1 51132U 22005AE  23231.55215765  .00000573  00000-0  54091-4 0  9996,2 51132  53.2184 168.1391 0001472  83.6826 276.4334 15.08838286 88973,6917.886,95.438,540.769,538.732,0.0
51132.0,STARLINK-3393,PAYLOAD,2023-08-21 01:48:57,15.08850143,0.0001441,53.2172,161.2981,95.874,264.2417,0.00013572,1.873e-05,0.0,0 STARLINK-3393,1 51132U 22005AE  23233.07567029  .00001873  00000-0  13572-3 0  9990,2 51132  53.2172 161.2981 0001441  95.8740 264.2417 15.08850143 89205,6917.849,95.437,540.711,538.718,0.0
51132.0,STARLINK-3393,PAYLOAD,2023-08-21 19:18:13,15.08834907,0.0001662,53.216,158.028,84.2794,275.8388,5.8259e-05,6.39e-06,0.0,0 STARLINK-3393,1 51132U 22005AE  23233.80432298  .00000639  00000-0  58259-4 0  9991,2 51132  53.2160 158.0280 0001662  84.2794 275.8388 15.08834907 89311,6917.896,95.438,540.911,538.611,0.0
51132.0,STARLINK-3393,PAYLOAD,2023-08-23 01:30:32,15.08847577,0.0001493,53.2167,152.378,92.3341,267.7822,0.00013707,1.895e-05,0.0,0 STARLINK-3393,1 51132U 22005AE  23235.06287872  .00001895  00000-0  13707-3 0  9990,2 51132  53.2167 152.3780 0001493  92.3341 267.7822 15.08847577 89501,6917.857,95.437,540.755,538.689,0.0
51132.0,STARLINK-3393,PAYLOAD,2023-08-24 01:21:20,15.0884001,0.0001502,53.2169,147.9178,100.1087,260.0074,0.00013069,1.793e-05,0.0,0 STARLINK-3393,1 51132U 22005AE  23236.05648302  .00001793  00000-0  13069-3 0  9997,2 51132  53.2169 147.9178 0001502 100.1087 260.0074 15.08840010 88532,6917.88,95.438,540.784,538.706,0.0
51132.0,STARLINK-3393,PAYLOAD,2023-08-25 02:47:30,15.08842979,0.0001398,53.2167,143.1591,90.1822,269.9331,3.2189e-05,2.24e-06,0.0,0 STARLINK-3393,1 51132U 22005AE  23237.11632292  .00000224  00000-0  32189-4 0  9999,2 51132  53.2167 143.1591 0001398  90.1822 269.9331 15.08842979 89817,6917.871,95.437,540.703,538.769,0.0
51132.0,STARLINK-3393,PAYLOAD,2023-08-25 23:27:31,15.08833474,0.0001505,53.2169,139.2944,85.8293,274.2871,0.00032223,4.843e-05,0.0,0 STARLINK-3393,1 51132U 22005AE  23237.97744910  .00004843  00000-0  32223-3 0  9993,2 51132  53.2169 139.2944 0001505  85.8293 274.2871 15.08833474 89942,6917.9,95.438,540.806,538.724,0.0
51132.0,STARLINK-3393,PAYLOAD,2023-08-26 04:13:40,15.088402,0.0001482,53.2168,138.4028,90.2884,269.8278,0.00030241,4.528e-05,0.0,0 STARLINK-3393,1 51132U 22005AE  23238.17616606  .00004528  00000-0  30241-3 0  9994,2 51132  53.2168 138.4028 0001482  90.2884 269.8278 15.08840200 88850,6917.88,95.438,540.77,538.72,0.0
51132.0,STARLINK-3393,PAYLOAD,2023-08-26 21:42:55,15.08838582,0.0001493,53.2174,135.1301,86.1707,273.9456,7.6704e-06,-1.66e-06,0.0,0 STARLINK-3393,1 51132U 22005AE  23238.90480825 -.00000166  00000-0  76704-5 0  9998,2 51132  53.2174 135.1301 0001493  86.1707 273.9456 15.08838582 88961,6917.885,95.438,540.783,538.717,0.0
51132.0,STARLINK-3393,PAYLOAD,2023-08-27 02:29:04,15.08845089,0.0001313,53.2175,134.2382,92.621,267.4932,8.9324e-05,1.134e-05,0.0,0 STARLINK-3393,1 51132U 22005AE  23239.10352526  .00001134  00000-0  89324-4 0  9993,2 51132  53.2175 134.2382 0001313  92.6210 267.4932 15.08845089 90110,6917.865,95.437,540.638,538.822,0.0
51132.0,STARLINK-3393,PAYLOAD,2023-08-27 21:33:42,15.08844111,0.0001631,53.2174,130.6721,72.4199,287.6971,8.7468e-05,1.104e-05,0.0,0 STARLINK-3393,1 51132U 22005AE  23239.89840749  .00001104  00000-0  87468-4 0  9992,2 51132  53.2174 130.6721 0001631  72.4199 287.6971 15.08844111 89111,6917.868,95.437,540.861,538.605,0.0
51132.0,STARLINK-3393,PAYLOAD,2023-08-28 10:16:47,15.08844664,0.0001551,53.2177,128.2892,101.0957,259.021,0.00011669,1.57e-05,0.0,0 STARLINK-3393,1 51132U 22005AE  23240.42832405  .00001570  00000-0  11669-3 0  9999,2 51132  53.2177 128.2892 0001551 101.0957 259.0210 15.08844664 90314,6917.866,95.437,540.804,538.658,0.0
51132.0,STARLINK-3393,PAYLOAD,2023-08-28 21:24:29,15.08843273,0.0001576,53.2177,126.2069,103.0283,257.0885,3.1199e-05,2.09e-06,0.0,0 STARLINK-3393,1 51132U 22005AE  23240.89200563  .00000209  00000-0  31199-4 0  9993,2 51132  53.2177 126.2069 0001576 103.0283 257.0885 15.08843273 89262,6917.87,95.437,540.826,538.645,0.0
